LEMUR-2-YNDRD
1 44413U 19038AD  24002.91780209  .00059685  00000-0  11383-2 0  9992
2 44413  97.6633 356.3674 0011167 311.3941  48.6348 15.47897392249175
